TIGER-8                 
1 59120U 24043Y   26197.94776839  .00005185  00000+0  11116-3 0  9999
2 59120  97.5577 347.7638 0008920  97.4046 262.8216 15.45186811132380
TIGER-7                 
1 59141U 24043AV  26198.68768204  .00006350  00000+0  11755-3 0  9995
2 59141  97.5520 351.0559 0006722  70.1553 290.0422 15.49382049132691
