{"fetched_at":"2026-07-18T06:28:33.573Z","source":"https://celestrak.org/NORAD/elements/gp.php?NAME=TIGER&FORMAT=JSON","constellation":"oq-technology","records":[{"OBJECT_NAME":"TIGER-8","OBJECT_ID":"2024-043Y","EPOCH":"2026-07-16T22:44:47.188896","CLASSIFICATION_TYPE":"U","MEAN_MOTION":15.45186811,"ECCENTRICITY":0.000892,"INCLINATION":97.5577,"RA_OF_ASC_NODE":347.7638,"ARG_OF_PERICENTER":97.4046,"MEAN_ANOMALY":262.8216,"EPHEMERIS_TYPE":0,"NORAD_CAT_ID":59120,"ELEMENT_SET_NO":999,"REV_AT_EPOCH":13238,"BSTAR":0.00011116,"MEAN_MOTION_DOT":0.00005185,"MEAN_MOTION_DDOT":0},{"OBJECT_NAME":"TIGER-7","OBJECT_ID":"2024-043AV","EPOCH":"2026-07-17T16:30:15.728256","CLASSIFICATION_TYPE":"U","MEAN_MOTION":15.49382049,"ECCENTRICITY":0.00067218,"INCLINATION":97.552,"RA_OF_ASC_NODE":351.0559,"ARG_OF_PERICENTER":70.1553,"MEAN_ANOMALY":290.0422,"EPHEMERIS_TYPE":0,"NORAD_CAT_ID":59141,"ELEMENT_SET_NO":999,"REV_AT_EPOCH":13269,"BSTAR":0.00011755218,"MEAN_MOTION_DOT":0.0000635,"MEAN_MOTION_DDOT":0}]}
